ONEWEB-0427             
1 50499U 21132AG  25362.55387328  .00000001  00000+0 -30569-4 0  9993
2 50499  87.9171   9.3146 0001771  97.6225 262.5108 13.18685972199128
ONEWEB-0429             
1 50500U 21132AH  25362.46478948  .00000037  00000+0  61782-4 0  9994
2 50500  87.9173   9.3646 0001735  85.4343 274.6988 13.18686676199081
ONEWEB-0430             
1 50501U 21132AJ  25362.52910921  .00000058  00000+0  11450-3 0  9993
2 50501  87.9179   9.3479 0001531  87.3388 272.7919 13.18687121199131
ONEWEB-0432             
1 50502U 21132AK  25362.56114685  .00000033  00000+0  50581-4 0  9993
2 50502  87.9168   9.3125 0001523 121.9559 238.1721 13.18677974199091
ONEWEB-0440             
1 50503U 21132AL  25362.39716610  .00000006  00000+0 -18385-4 0  9998
2 50503  87.9175   9.3639 0002097  82.6918 277.4452 13.18686443199064
ONEWEB-0450             
1 50504U 21132AM  25362.46658963  .00000126  00000+0  28755-3 0  9996
2 50504  87.9167   9.3710 0001660  82.0347 278.0974 13.18685767199100
ONEWEB-0410             
1 51622U 22012A   25362.58869241 -.00000047  00000+0 -15423-3 0  9994
2 51622  87.9106  39.7612 0002801 122.7814 237.3588 13.17646821191234
ONEWEB-0411             
1 51623U 22012B   25362.58307097  .00000197  00000+0  52867-3 0  9998
2 51623  87.8791  70.2764 0001216 106.1235 254.0026 13.10369870186948
